HYLAS 4                 
1 43272U 18033B   21331.48199720 -.00000217  00000+0  00000+0 0  9992
2 43272   0.0333 234.2491 0002161 356.1108 336.3058  1.00272198 13404
YAOGAN 31 A             
1 43275U 18034A   21331.34134916 -.00000090  00000+0  00000+0 0  9996
2 43275  63.4042  45.3203 0125413   3.4463 356.7398 13.45212761178510
YAOGAN 31 B             
1 43276U 18034B   21331.34153476 -.00000028  00000+0  10000-3 0  9995
2 43276  63.4060  45.3034 0126725   3.5170 356.6695 13.45214124178510
YAOGAN 31 C             
1 43277U 18034C   21331.34137612 -.00000065  00000+0  40608-4 0  9999
2 43277  63.4032  44.5236 0124819   3.1989 356.9807 13.45212648178530
WEINA 1B                
1 43279U 18034E   21331.36024215 -.00000090  00000+0  31207-6 0  9992
2 43279  63.4049  45.3827 0125779   4.5545 355.6591 13.45189174178515
IRNSS-1I                
1 43286U 18035A   21331.00939304  .00000124  00000+0  00000+0 0  9993
2 43286  28.6323 100.6670 0022204 179.9065 204.0315  1.00275382 13395
USA 283                 
1 43339U 18036A   21330.58238855 -.00000301  00000+0  00000+0 0  9996
2 43339   0.0086 296.3113 0001174   3.4463 109.7499  1.00266739  2056
COSMOS 2526             
1 43432U 18037A   21331.01181670 -.00000328  00000+0  00000+0 0  9991
2 43432   0.0120  95.7210 0000570 212.2362 250.5374  1.00272521 13285
TESS                    
1 43435U 18038A   21336.99054377 -.00003129  00000+0  00000+0 0  9992
2 43435  21.3943  86.9170 6028038 183.4181 357.2265  0.07433450   632
SENTINEL-3B             
1 43437U 18039A   21330.91893400  .00000012  00000+0  22970-4 0  9991
2 43437  98.6280  36.0947 0001464 100.3370 259.7976 14.26738153186958
ZHUHAI-1 OHS-01         
1 43439U 18040A   21331.49661238  .00001860  00000+0  89890-4 0  9997
2 43439  97.2722  32.8810 0013645  24.9605  99.3496 15.19757000199016
ZHUHAI-1 OVS-02         
1 43440U 18040B   21331.47577656  .00001693  00000+0  81768-4 0  9997
2 43440  97.2745  33.0018 0012207  44.7971  79.7636 15.19904383199022
ZHUHAI-1 OHS-02         
1 43441U 18040C   21331.45737563  .00001758  00000+0  84648-4 0  9993
2 43441  97.2862  34.9244 0012783  62.4361  58.9039 15.19955819199029
ZHUHAI-1 OHS-03         
1 43442U 18040D   21331.48398132  .00001972  00000+0  93794-4 0  9992
2 43442  97.2688  32.7983 0007253  62.9322  65.1976 15.20292320199034
ZHUHAI-1 OHS-04         
1 43443U 18040E   21331.50736905  .00001801  00000+0  87135-4 0  9993
2 43443  97.2762  33.5969 0007218  33.0034  80.6045 15.19807531199034
USA 285                 
1 43445U 18036E   21330.48150090 -.00000130  00000+0  00000+0 0  9997
2 43445   3.0378  85.4375 0008062 104.7570 281.4715  1.02115524  9957
USA 286                 
1 43446U 18036F   21330.40245448 -.00000187  00000+0  00000+0 0  9994
2 43446   3.0359  85.3673 0007884 101.1379 287.8540  1.02122941  9931
APSTAR 6C               
1 43450U 18041A   21329.36220502 -.00000302  00000+0  00000+0 0  9991
2 43450   0.0165 292.5635 0002989 300.7955  95.5514  1.00268143 13142
GAOFEN 5-01             
1 43461U 18043A   21331.50732121  .00000065  00000+0  24141-4 0  9991
2 43461  98.2476 268.4485 0001751 157.5271 202.5993 14.57860114189235
BANGABANDHUSAT-1        
1 43463U 18044A   21330.87618719 -.00000347  00000+0  00000+0 0  9996
2 43463   0.0149   6.2702 0002114 254.1354 240.1635  1.00272727 13031
GRACE-FO 1              
1 43476U 18047A   21331.42594692  .00000652  00000+0  25278-4 0  9995
2 43476  88.9852  65.9432 0019090  51.1792 309.1156 15.24306977195632
GRACE-FO 2              
1 43477U 18047B   21331.16367160  .00000586  00000+0  22581-4 0  9995
2 43477  88.9851  65.9821 0019115  52.0710 308.2261 15.24306468195599
IRIDIUM 161             
1 43478U 18047C   21331.19946522  .00000142  00000+0  36258-4 0  9998
2 43478  86.4510  63.4583 0002553  91.9251 268.2242 14.43283519185272
IRIDIUM 152             
1 43479U 18047D   21330.54127070  .00000130  00000+0  39499-4 0  9993
2 43479  86.3984  63.6003 0001924 102.2914 257.8497 14.34220139184048
IRIDIUM 147             
1 43480U 18047E   21330.54760574  .00000173  00000+0  54696-4 0  9990
2 43480  86.3984  63.5739 0002309 100.2682 259.8774 14.34214777184033
IRIDIUM 110             
1 43481U 18047F   21330.55396827  .00000127  00000+0  38116-4 0  9996
2 43481  86.3987  63.6192 0002193  88.6501 271.4946 14.34218532184024
IRIDIUM 162             
1 43482U 18047G   21330.49990475  .00000155  00000+0  39936-4 0  9991
2 43482  86.4509  63.6639 0002191  89.3475 270.7977 14.43277216185164
GAOFEN 6                
1 43484U 18048A   21331.35126825  .00000174  00000+0  32198-4 0  9994
2 43484  97.9478  50.1120 0010412 131.8016 228.4091 14.76499723188012
LUOJIA-1 01             
1 43485U 18048B   21331.40716094  .00000324  00000+0  53190-4 0  9996
2 43485  97.9517  50.8152 0012405 127.5250 232.7090 14.76962980188045
SES-12                  
1 43488U 18049A   21331.07696875 -.00000253  00000+0  00000+0 0  9996
2 43488   0.0370  66.6642 0002511 197.5280 284.7590  1.00270678 12739
FENGYUN 2H              
1 43491U 18050A   21330.93938376 -.00000113  00000+0  00000+0 0  9996
2 43491   0.6382 102.4366 0003236  47.9378 333.1962  1.00271408 12762
COSMOS 2527 [GLONASS-M] 
1 43508U 18053A   21331.30713736  .00000107  00000+0  00000+0 0  9993
2 43508  64.9271 129.6144 0006914 211.6096   2.8439  2.13102504 26836
REMOVEDEBRIS            
1 43510U 98067NT  21331.43835703  .00608142  22126-3  45859-3 0  9997
2 43510  51.6209 121.3917 0008152 303.1444  56.8789 16.14563065196632
XJS A                   
1 43518U 18054A   21331.33102500  .00005894  00000+0  19113-3 0  9996
2 43518  35.0451 298.1445 0005507  14.9228 345.1652 15.31303998191310
XJS B                   
1 43519U 18054B   21331.32912428  .00005993  00000+0  19427-3 0  9992
2 43519  35.0453 298.0303 0004502  70.1421 289.9782 15.31313188191319
PAKTES 1A               
1 43529U 18056A   21331.54723185  .00000314  00000+0  40576-4 0  9991
2 43529  97.9853  68.1889 0026359 190.9976 169.0645 14.87669447183922
PRSS 1                  
1 43530U 18056B   21331.52097864  .00000147  00000+0  28022-4 0  9995
2 43530  97.9533  48.2368 0001348  84.3180 275.8189 14.77049343182647
BEIDOU IGSO-7           
1 43539U 18057A   21330.91621303 -.00000062  00000+0  00000+0 0  9996
2 43539  55.0606 177.5043 0040158 221.3647 110.5841  1.00272161 12472
AEROCUBE 12A            
1 43556U 18046C   21330.78791409  .00005878  00000+0  19141-3 0  9992
2 43556  51.6400  86.3853 0007397  28.6170 331.5217 15.33258846188176
AEROCUBE 12B            
1 43557U 18046D   21331.60712473  .00005038  00000+0  16987-3 0  9992
2 43557  51.6396  85.0570 0007566  30.7935 329.3489 15.32455860188219
LEMUR-2-VU              
1 43558U 18046E   21330.35457481  .00006826  00000+0  20078-3 0  9991
2 43558  51.6405  77.7625 0006465  34.0416 326.0981 15.36242831188248
LEMUR-2-ALEXANDER       
1 43559U 18046F   21330.83255841  .00008954  00000+0  25749-3 0  9995
2 43559  51.6399  74.2297 0006425  36.1642 323.9775 15.36542622188112
LEMUR-2-YUASA           
1 43560U 18046G   21330.84750532  .00007818  00000+0  22850-3 0  9993
2 43560  51.6399  75.8021 0006617  48.9568 311.1986 15.36224524188310
LEMUR-2-TOMHENDERSON    
1 43561U 18046H   21330.71017635  .00008023  00000+0  23794-3 0  9997
2 43561  51.6404  77.8582 0006909  44.3391 315.8144 15.35723193187838
TELSTAR 19V             
1 43562U 18059A   21331.44658448 -.00000263  00000+0  00000+0 0  9996
2 43562   0.0114 293.8855 0002139 256.2033 334.2630  1.00268605 12499
GSAT0221 (GALILEO 25)   
1 43564U 18060A   21330.50980189 -.00000070  00000+0  00000+0 0  9992
2 43564  57.0926  26.6868 0005114 261.2005  98.8019  1.70476168 20812
GSAT0222 (GALILEO 26)   
1 43565U 18060B   21331.31622060 -.00000069  00000+0  00000+0 0  9992
2 43565  57.0951  26.6650 0004635 267.2477  92.7593  1.70476129 20868
GSAT0219 (GALILEO 23)   
1 43566U 18060C   21328.01730758 -.00000075  00000+0  00000+0 0  9997
2 43566  57.0942  26.7566 0004210 265.5762  94.4377  1.70476242 20789
GSAT0220 (GALILEO 24)   
1 43567U 18060D   21330.58359415 -.00000070  00000+0  00000+0 0  9995
2 43567  57.0950  26.6879 0004614 263.1921  96.8157  1.70476094 20815
IRIDIUM 160             
1 43569U 18061A   21330.91841805  .00000094  00000+0  26616-4 0  9995
2 43569  86.4000  31.8497 0002239 102.1643 257.9804 14.34217168174972
IRIDIUM 166             
1 43570U 18061B   21330.87402292  .00000097  00000+0  27676-4 0  9995
2 43570  86.3999  31.8418 0002056  90.1224 270.0208 14.34218277174999
IRIDIUM 158             
1 43571U 18061C   21331.47021003  .00000096  00000+0  27334-4 0  9990
2 43571  86.4014  31.6012 0002007  98.7477 261.3947 14.34215903175051
IRIDIUM 165             
1 43572U 18061D   21331.14674853  .00000092  00000+0  25925-4 0  9992
2 43572  86.3999  31.7514 0001945  96.3783 263.7635 14.34217621175021
IRIDIUM 155             
1 43573U 18061E   21331.45752345  .00000099  00000+0  28305-4 0  9992
2 43573  86.3995  31.5708 0002456  85.9244 274.2232 14.34219846175048
IRIDIUM 154             
1 43574U 18061F   21330.88036062  .00000094  00000+0  26673-4 0  9991
2 43574  86.4000  31.8660 0002285 102.0791 258.0661 14.34217050175002
IRIDIUM 163             
1 43575U 18061G   21330.93110693  .00000091  00000+0  25497-4 0  9991
2 43575  86.3997  31.8110 0001726  96.7198 263.4195 14.34216659174988
IRIDIUM 156             
1 43576U 18061H   21331.46387526  .00000099  00000+0  28151-4 0  9990
2 43576  86.3997  31.5936 0002032  87.6649 272.4780 14.34215307175040
IRIDIUM 164             
1 43577U 18061J   21331.44484198  .00000091  00000+0  25566-4 0  9991
2 43577  86.3998  31.6167 0002088 101.5827 258.5603 14.34215532175098
IRIDIUM 159             
1 43578U 18061K   21330.92476644  .00000093  00000+0  26244-4 0  9997
2 43578  86.3997  31.8056 0002216 100.3512 259.7933 14.34215300174987
